{
  "type": "FeatureCollection",
  "features": [
    {
      "type": "Feature",
      "properties": {
        "norad_id": 40115,
        "name": "WORLDVIEW-3 (WV-3)",
        "group": "resource",
        "lat": 71.34473873486726,
        "lon": -98.82861157979978,
        "alt_km": 604.8287633093141,
        "timestamp": "2025-12-10T16:57:11.291809+00:00",
        "meta_object_name": "WORLDVIEW-3 (WV-3)",
        "meta_object_id": "2014-048A",
        "meta_epoch": "2025-12-10T11:37:24.150720",
        "meta_mean_motion": 14.85502724,
        "meta_eccentricity": 0.0004572,
        "meta_inclination": 97.8618,
        "meta_ra_of_asc_node": 56.7929,
        "meta_arg_of_pericenter": 192.3918,
        "meta_mean_anomaly": 167.7185,
        "meta_ephemeris_type": 0,
        "meta_classification_type": "U",
        "meta_norad_cat_id": 40115,
        "meta_element_set_no": 999,
        "meta_rev_at_epoch": 61390,
        "meta_bstar": 0.0002197,
        "meta_mean_motion_dot": 1.843e-05,
        "meta_mean_motion_ddot": 0,
        "tle_line1": "1 40115U 14048A   25344.48430730  .00001843  00000+0  21970-3 0  9992",
        "tle_line2": "2 40115  97.8618  56.7929 0004572 192.3918 167.7185 14.85502724613903"
      },
      "geometry": {
        "type": "Point",
        "coordinates": [
          -98.82861157979978,
          71.34473873486726
        ]
      }
    },
    {
      "type": "Feature",
      "properties": {
        "norad_id": 40118,
        "name": "GAOFEN-2",
        "group": "resource",
        "lat": -39.47843683739118,
        "lon": 50.555481525865524,
        "alt_km": 639.4176664702172,
        "timestamp": "2025-12-10T16:57:11.291819+00:00",
        "meta_object_name": "GAOFEN-2",
        "meta_object_id": "2014-049A",
        "meta_epoch": "2025-12-10T12:16:03.355680",
        "meta_mean_motion": 14.80601169,
        "meta_eccentricity": 0.0008442,
        "meta_inclination": 98.0382,
        "meta_ra_of_asc_node": 43.6754,
        "meta_arg_of_pericenter": 118.7844,
        "meta_mean_anomaly": 241.4217,
        "meta_ephemeris_type": 0,
        "meta_classification_type": "U",
        "meta_norad_cat_id": 40118,
        "meta_element_set_no": 999,
        "meta_rev_at_epoch": 61131,
        "meta_bstar": 0.00013644,
        "meta_mean_motion_dot": 9.94e-06,
        "meta_mean_motion_ddot": 0,
        "tle_line1": "1 40118U 14049A   25344.51114995  .00000994  00000+0  13644-3 0  9997",
        "tle_line2": "2 40118  98.0382  43.6754 0008442 118.7844 241.4217 14.80601169611315"
      },
      "geometry": {
        "type": "Point",
        "coordinates": [
          50.555481525865524,
          -39.47843683739118
        ]
      }
    },
    {
      "type": "Feature",
      "properties": {
        "norad_id": 40143,
        "name": "YAOGAN-21",
        "group": "resource",
        "lat": -30.837625970784867,
        "lon": 32.42044185254894,
        "alt_km": 499.6279956847993,
        "timestamp": "2025-12-10T16:57:11.291829+00:00",
        "meta_object_name": "YAOGAN-21",
        "meta_object_id": "2014-053A",
        "meta_epoch": "2025-12-10T12:21:38.598048",
        "meta_mean_motion": 15.2364388,
        "meta_eccentricity": 0.000993,
        "meta_inclination": 97.1754,
        "meta_ra_of_asc_node": 27.924,
        "meta_arg_of_pericenter": 48.6437,
        "meta_mean_anomaly": 311.5653,
        "meta_ephemeris_type": 0,
        "meta_classification_type": "U",
        "meta_norad_cat_id": 40143,
        "meta_element_set_no": 999,
        "meta_rev_at_epoch": 62620,
        "meta_bstar": 0.00058094,
        "meta_mean_motion_dot": 0.00013888,
        "meta_mean_motion_ddot": 0,
        "tle_line1": "1 40143U 14053A   25344.51503007  .00013888  00000+0  58094-3 0  9990",
        "tle_line2": "2 40143  97.1754  27.9240 0009930  48.6437 311.5653 15.23643880626204"
      },
      "geometry": {
        "type": "Point",
        "coordinates": [
          32.42044185254894,
          -30.837625970784867
        ]
      }
    },
    {
      "type": "Feature",
      "properties": {
        "norad_id": 40275,
        "name": "YAOGAN-22",
        "group": "resource",
        "lat": -63.025655356900174,
        "lon": -73.80083310075909,
        "alt_km": 1204.4778021317534,
        "timestamp": "2025-12-10T16:57:11.291839+00:00",
        "meta_object_name": "YAOGAN-22",
        "meta_object_id": "2014-063A",
        "meta_epoch": "2025-12-10T08:24:35.604576",
        "meta_mean_motion": 13.1552254,
        "meta_eccentricity": 0.0005945,
        "meta_inclination": 100.7419,
        "meta_ra_of_asc_node": 127.7362,
        "meta_arg_of_pericenter": 254.178,
        "meta_mean_anomaly": 105.8676,
        "meta_ephemeris_type": 0,
        "meta_classification_type": "U",
        "meta_norad_cat_id": 40275,
        "meta_element_set_no": 999,
        "meta_rev_at_epoch": 53498,
        "meta_bstar": 0.00010244,
        "meta_mean_motion_dot": -8e-08,
        "meta_mean_motion_ddot": 0,
        "tle_line1": "1 40275U 14063A   25344.35041209 -.00000008  00000+0  10244-3 0  9996",
        "tle_line2": "2 40275 100.7419 127.7362 0005945 254.1780 105.8676 13.15522540534980"
      },
      "geometry": {
        "type": "Point",
        "coordinates": [
          -73.80083310075909,
          -63.025655356900174
        ]
      }
    },
    {
      "type": "Feature",
      "properties": {
        "norad_id": 40298,
        "name": "ASNARO",
        "group": "resource",
        "lat": 46.932442078491526,
        "lon": 52.749010117307975,
        "alt_km": 502.81288387420045,
        "timestamp": "2025-12-10T16:57:11.291849+00:00",
        "meta_object_name": "ASNARO",
        "meta_object_id": "2014-070A",
        "meta_epoch": "2025-12-10T12:00:11.920608",
        "meta_mean_motion": 15.1941956,
        "meta_eccentricity": 0.0005426,
        "meta_inclination": 97.3645,
        "meta_ra_of_asc_node": 60.5014,
        "meta_arg_of_pericenter": 127.7803,
        "meta_mean_anomaly": 232.3924,
        "meta_ephemeris_type": 0,
        "meta_classification_type": "U",
        "meta_norad_cat_id": 40298,
        "meta_element_set_no": 999,
        "meta_rev_at_epoch": 61535,
        "meta_bstar": 0.00086,
        "meta_mean_motion_dot": 0.00018185,
        "meta_mean_motion_ddot": 0,
        "tle_line1": "1 40298U 14070A   25344.50013797  .00018185  00000+0  86000-3 0  9994",
        "tle_line2": "2 40298  97.3645  60.5014 0005426 127.7803 232.3924 15.19419560615356"
      },
      "geometry": {
        "type": "Point",
        "coordinates": [
          52.749010117307975,
          46.932442078491526
        ]
      }
    },
    {
      "type": "Feature",
      "properties": {
        "norad_id": 40310,
        "name": "YAOGAN-24",
        "group": "resource",
        "lat": -23.61244927439745,
        "lon": 119.36818791422313,
        "alt_km": 656.9877603298337,
        "timestamp": "2025-12-10T16:57:11.291858+00:00",
        "meta_object_name": "YAOGAN-24",
        "meta_object_id": "2014-072A",
        "meta_epoch": "2025-12-10T12:10:51.087072",
        "meta_mean_motion": 14.76168245,
        "meta_eccentricity": 0.0014631,
        "meta_inclination": 98.1225,
        "meta_ra_of_asc_node": 115.5889,
        "meta_arg_of_pericenter": 144.6796,
        "meta_mean_anomaly": 215.5385,
        "meta_ephemeris_type": 0,
        "meta_classification_type": "U",
        "meta_norad_cat_id": 40310,
        "meta_element_set_no": 999,
        "meta_rev_at_epoch": 59588,
        "meta_bstar": 0.00017358,
        "meta_mean_motion_dot": 1.149e-05,
        "meta_mean_motion_ddot": 0,
        "tle_line1": "1 40310U 14072A   25344.50753573  .00001149  00000+0  17358-3 0  9996",
        "tle_line2": "2 40310  98.1225 115.5889 0014631 144.6796 215.5385 14.76168245595884"
      },
      "geometry": {
        "type": "Point",
        "coordinates": [
          119.36818791422313,
          -23.61244927439745
        ]
      }
    },
    {
      "type": "Feature",
      "properties": {
        "norad_id": 40336,
        "name": "CBERS 4",
        "group": "resource",
        "lat": 13.694878419716746,
        "lon": 40.7463232839028,
        "alt_km": 774.5329164185932,
        "timestamp": "2025-12-10T16:57:11.291868+00:00",
        "meta_object_name": "CBERS 4",
        "meta_object_id": "2014-079A",
        "meta_epoch": "2025-12-10T10:11:50.920224",
        "meta_mean_motion": 14.35517122,
        "meta_eccentricity": 0.0001606,
        "meta_inclination": 98.3307,
        "meta_ra_of_asc_node": 42.5207,
        "meta_arg_of_pericenter": 113.8855,
        "meta_mean_anomaly": 246.25,
        "meta_ephemeris_type": 0,
        "meta_classification_type": "U",
        "meta_norad_cat_id": 40336,
        "meta_element_set_no": 999,
        "meta_rev_at_epoch": 57687,
        "meta_bstar": 0.00017713,
        "meta_mean_motion_dot": 4.68e-06,
        "meta_mean_motion_ddot": 0,
        "tle_line1": "1 40336U 14079A   25344.42489491  .00000468  00000+0  17713-3 0  9995",
        "tle_line2": "2 40336  98.3307  42.5207 0001606 113.8855 246.2500 14.35517122576875"
      },
      "geometry": {
        "type": "Point",
        "coordinates": [
          40.7463232839028,
          13.694878419716746
        ]
      }
    }
  ]
}